{"type": "FeatureCollection", "features": [ {"type": "Feature", "properties": {"norad_id": 54234, "name": "NOAA 21 (JPSS-2)", "group": "weather", "lat": 10.43369327796775, "lon": 112.99245914197327, "alt_km": 829.5609633099075, "timestamp": "2025-12-21T03:56:50.501449+00:00", "meta": {"OBJECT_NAME": "NOAA 21 (JPSS-2)", "OBJECT_ID": "2022-150A", "EPOCH": "2025-12-20T18:41:38.535936", "MEAN_MOTION": 14.19526185, "ECCENTRICITY": 0.0001866, "INCLINATION": 98.7473, "RA_OF_ASC_NODE": 290.9871, "ARG_OF_PERICENTER": 21.8279, "MEAN_ANOMALY": 338.2976, "EPHEMERIS_TYPE": 0, "CLASSIFICATION_TYPE": "U", "NORAD_CAT_ID": 54234, "ELEMENT_SET_NO": 999, "REV_AT_EPOCH": 16123, "BSTAR": 4.2754e-05, "MEAN_MOTION_DOT": 4.6e-07, "MEAN_MOTION_DDOT": 0}, "tle": {"line1": "1 54234U 22150A   25354.77891824  .00000046  00000+0  42754-4 0  9998", "line2": "2 54234  98.7473 290.9871 0001866  21.8279 338.2976 14.19526185161237"}}, "geometry": {"type": "Point", "coordinates": [112.99245914197327, 10.43369327796775]}}, {"type": "Feature", "properties": {"norad_id": 54743, "name": "METEOSAT-12 (MTG-I1)", "group": "weather", "lat": 0.5908017955665885, "lon": 148.86680387321715, "alt_km": 35789.087902692096, "timestamp": "2025-12-21T03:56:50.501459+00:00", "meta": {"OBJECT_NAME": "METEOSAT-12 (MTG-I1)", "OBJECT_ID": "2022-170C", "EPOCH": "2025-12-20T18:21:52.523136", "MEAN_MOTION": 1.00270608, "ECCENTRICITY": 0.0001481, "INCLINATION": 0.695, "RA_OF_ASC_NODE": 24.9233, "ARG_OF_PERICENTER": 240.0583, "MEAN_ANOMALY": 99.7732, "EPHEMERIS_TYPE": 0, "CLASSIFICATION_TYPE": "U", "NORAD_CAT_ID": 54743, "ELEMENT_SET_NO": 999, "REV_AT_EPOCH": 1118, "BSTAR": 0, "MEAN_MOTION_DOT": 1.6e-07, "MEAN_MOTION_DDOT": 0}, "tle": {"line1": "1 54743U 22170C   25354.76519124  .00000016  00000+0  00000+0 0  9994", "line2": "2 54743   0.6950  24.9233 0001481 240.0583  99.7732  1.00270608 11186"}}, "geometry": {"type": "Point", "coordinates": [148.86680387321715, 0.5908017955665885]}}, {"type": "Feature", "properties": {"norad_id": 55973, "name": "TIANMU-1 03", "group": "weather", "lat": 5.271102299191495, "lon": -21.25023157288578, "alt_km": 447.16112264364983, "timestamp": "2025-12-21T03:56:50.501470+00:00", "meta": {"OBJECT_NAME": "TIANMU-1 03", "OBJECT_ID": "2023-039A", "EPOCH": "2025-12-20T19:24:03.894624", "MEAN_MOTION": 15.41141447, "ECCENTRICITY": 0.0004032, "INCLINATION": 97.5105, "RA_OF_ASC_NODE": 157.6863, "ARG_OF_PERICENTER": 37.8884, "MEAN_ANOMALY": 322.2645, "EPHEMERIS_TYPE": 0, "CLASSIFICATION_TYPE": "U", "NORAD_CAT_ID": 55973, "ELEMENT_SET_NO": 999, "REV_AT_EPOCH": 15330, "BSTAR": 0.00026448, "MEAN_MOTION_DOT": 0.00010874, "MEAN_MOTION_DDOT": 0}, "tle": {"line1": "1 55973U 23039A   25354.80837841  .00010874  00000+0  26448-3 0  9990", "line2": "2 55973  97.5105 157.6863 0004032  37.8884 322.2645 15.41141447153309"}}, "geometry": {"type": "Point", "coordinates": [-21.25023157288578, 5.271102299191495]}}, {"type": "Feature", "properties": {"norad_id": 55974, "name": "TIANMU-1 04", "group": "weather", "lat": -60.465829347929436, "lon": 170.69334636398085, "alt_km": 449.0049911967226, "timestamp": "2025-12-21T03:56:50.501479+00:00", "meta": {"OBJECT_NAME": "TIANMU-1 04", "OBJECT_ID": "2023-039B", "EPOCH": "2025-12-20T20:25:23.763936", "MEAN_MOTION": 15.4148299, "ECCENTRICITY": 0.0004633, "INCLINATION": 97.5037, "RA_OF_ASC_NODE": 156.9179, "ARG_OF_PERICENTER": 31.7676, "MEAN_ANOMALY": 328.385, "EPHEMERIS_TYPE": 0, "CLASSIFICATION_TYPE": "U", "NORAD_CAT_ID": 55974, "ELEMENT_SET_NO": 999, "REV_AT_EPOCH": 15331, "BSTAR": 0.00024421, "MEAN_MOTION_DOT": 0.00010148, "MEAN_MOTION_DDOT": 0}, "tle": {"line1": "1 55974U 23039B   25354.85096949  .00010148  00000+0  24421-3 0  9995", "line2": "2 55974  97.5037 156.9179 0004633  31.7676 328.3850 15.41482990153312"}}, "geometry": {"type": "Point", "coordinates": [170.69334636398085, -60.465829347929436]}}, {"type": "Feature", "properties": {"norad_id": 55975, "name": "TIANMU-1 05", "group": "weather", "lat": -40.61655782958489, "lon": 164.22756661594877, "alt_km": 449.7648081081725, "timestamp": "2025-12-21T03:56:50.501489+00:00", "meta": {"OBJECT_NAME": "TIANMU-1 05", "OBJECT_ID": "2023-039C", "EPOCH": "2025-12-20T20:20:00.269376", "MEAN_MOTION": 15.41099485, "ECCENTRICITY": 0.0004093, "INCLINATION": 97.5084, "RA_OF_ASC_NODE": 157.4067, "ARG_OF_PERICENTER": 56.3749, "MEAN_ANOMALY": 303.7888, "EPHEMERIS_TYPE": 0, "CLASSIFICATION_TYPE": "U", "NORAD_CAT_ID": 55975, "ELEMENT_SET_NO": 999, "REV_AT_EPOCH": 15329, "BSTAR": 0.00024637, "MEAN_MOTION_DOT": 0.00010108, "MEAN_MOTION_DDOT": 0}, "tle": {"line1": "1 55975U 23039C   25354.84722534  .00010108  00000+0  24637-3 0  9996", "line2": "2 55975  97.5084 157.4067 0004093  56.3749 303.7888 15.41099485153299"}}, "geometry": {"type": "Point", "coordinates": [164.22756661594877, -40.61655782958489]}}, {"type": "Feature", "properties": {"norad_id": 55976, "name": "TIANMU-1 06", "group": "weather", "lat": -70.36256273425919, "lon": 179.90138753198906, "alt_km": 450.4106835285893, "timestamp": "2025-12-21T03:56:50.501500+00:00", "meta": {"OBJECT_NAME": "TIANMU-1 06", "OBJECT_ID": "2023-039D", "EPOCH": "2025-12-20T20:28:08.178816", "MEAN_MOTION": 15.4153474, "ECCENTRICITY": 0.000439, "INCLINATION": 97.5094, "RA_OF_ASC_NODE": 157.8844, "ARG_OF_PERICENTER": 50.4314, "MEAN_ANOMALY": 309.732, "EPHEMERIS_TYPE": 0, "CLASSIFICATION_TYPE": "U", "NORAD_CAT_ID": 55976, "ELEMENT_SET_NO": 999, "REV_AT_EPOCH": 15331, "BSTAR": 0.00024468, "MEAN_MOTION_DOT": 0.00010185, "MEAN_MOTION_DDOT": 0}, "tle": {"line1": "1 55976U 23039D   25354.85287244  .00010185  00000+0  24468-3 0  9999", "line2": "2 55976  97.5094 157.8844 0004390  50.4314 309.7320 15.41534740153319"}}, "geometry": {"type": "Point", "coordinates": [179.90138753198906, -70.36256273425919]}}, {"type": "Feature", "properties": {"norad_id": 56232, "name": "FENGYUN 3G", "group": "weather", "lat": 49.94860428504614, "lon": -83.74151615831649, "alt_km": 398.223223738426, "timestamp": "2025-12-21T03:56:50.501509+00:00", "meta": {"OBJECT_NAME": "FENGYUN 3G", "OBJECT_ID": "2023-055A", "EPOCH": "2025-12-20T21:22:57.703296", "MEAN_MOTION": 15.54094619, "ECCENTRICITY": 0.0009292, "INCLINATION": 49.9915, "RA_OF_ASC_NODE": 185.3768, "ARG_OF_PERICENTER": 185.2301, "MEAN_ANOMALY": 174.8571, "EPHEMERIS_TYPE": 0, "CLASSIFICATION_TYPE": "U", "NORAD_CAT_ID": 56232, "ELEMENT_SET_NO": 999, "REV_AT_EPOCH": 15229, "BSTAR": 0.00034502, "MEAN_MOTION_DOT": 0.00022469, "MEAN_MOTION_DDOT": 0}, "tle": {"line1": "1 56232U 23055A   25354.89094564  .00022469  00000+0  34502-3 0  9996", "line2": "2 56232  49.9915 185.3768 0009292 185.2301 174.8571 15.54094619152293"}}, "geometry": {"type": "Point", "coordinates": [-83.74151615831649, 49.94860428504614]}}, {"type": "Feature", "properties": {"norad_id": 57166, "name": "METEOR-M2 3", "group": "weather", "lat": -31.81245578308773, "lon": -136.85372418912306, "alt_km": 819.4275633103152, "timestamp": "2025-12-21T03:56:50.501519+00:00", "meta": {"OBJECT_NAME": "METEOR-M2 3", "OBJECT_ID": "2023-091A", "EPOCH": "2025-12-20T20:12:31.887936", "MEAN_MOTION": 14.24026948, "ECCENTRICITY": 0.0003456, "INCLINATION": 98.6366, "RA_OF_ASC_NODE": 48.2395, "ARG_OF_PERICENTER": 344.4868, "MEAN_ANOMALY": 15.6205, "EPHEMERIS_TYPE": 0, "CLASSIFICATION_TYPE": "U", "NORAD_CAT_ID": 57166, "ELEMENT_SET_NO": 999, "REV_AT_EPOCH": 12913, "BSTAR": 1.6575e-05, "MEAN_MOTION_DOT": -5e-08, "MEAN_MOTION_DDOT": 0}, "tle": {"line1": "1 57166U 23091A   25354.84203574 -.00000005  00000+0  16575-4 0  9995", "line2": "2 57166  98.6366  48.2395 0003456 344.4868  15.6205 14.24026948129136"}}, "geometry": {"type": "Point", "coordinates": [-136.85372418912306, -31.81245578308773]}}, {"type": "Feature", "properties": {"norad_id": 57399, "name": "TIANMU-1 07", "group": "weather", "lat": -48.440345557980464, "lon": 53.126693226289554, "alt_km": 489.3183565340396, "timestamp": "2025-12-21T03:56:50.501528+00:00", "meta": {"OBJECT_NAME": "TIANMU-1 07", "OBJECT_ID": "2023-101A", "EPOCH": "2025-12-20T20:18:13.359744", "MEAN_MOTION": 15.28176965, "ECCENTRICITY": 0.0005282, "INCLINATION": 97.2865, "RA_OF_ASC_NODE": 44.5172, "ARG_OF_PERICENTER": 60.8648, "MEAN_ANOMALY": 299.3119, "EPHEMERIS_TYPE": 0, "CLASSIFICATION_TYPE": "U", "NORAD_CAT_ID": 57399, "ELEMENT_SET_NO": 999, "REV_AT_EPOCH": 13439, "BSTAR": 0.00017907, "MEAN_MOTION_DOT": 4.846e-05, "MEAN_MOTION_DDOT": 0}, "tle": {"line1": "1 57399U 23101A   25354.84598796  .00004846  00000+0  17907-3 0  9993", "line2": "2 57399  97.2865  44.5172 0005282  60.8648 299.3119 15.28176965134398"}}, "geometry": {"type": "Point", "coordinates": [53.126693226289554, -48.440345557980464]}}, {"type": "Feature", "properties": {"norad_id": 57400, "name": "TIANMU-1 08", "group": "weather", "lat": 46.9481800936777, "lon": -127.50385675799619, "alt_km": 475.7313913980852, "timestamp": "2025-12-21T03:56:50.501537+00:00", "meta": {"OBJECT_NAME": "TIANMU-1 08", "OBJECT_ID": "2023-101B", "EPOCH": "2025-12-20T21:05:02.964192", "MEAN_MOTION": 15.28159846, "ECCENTRICITY": 0.0007215, "INCLINATION": 97.2853, "RA_OF_ASC_NODE": 44.3456, "ARG_OF_PERICENTER": 61.091, "MEAN_ANOMALY": 299.1053, "EPHEMERIS_TYPE": 0, "CLASSIFICATION_TYPE": "U", "NORAD_CAT_ID": 57400, "ELEMENT_SET_NO": 999, "REV_AT_EPOCH": 13439, "BSTAR": 0.00018068, "MEAN_MOTION_DOT": 4.889e-05, "MEAN_MOTION_DDOT": 0}, "tle": {"line1": "1 57400U 23101B   25354.87850653  .00004889  00000+0  18068-3 0  9998", "line2": "2 57400  97.2853  44.3456 0007215  61.0910 299.1053 15.28159846134398"}}, "geometry": {"type": "Point", "coordinates": [-127.50385675799619, 46.9481800936777]}}]}